{
  "links" : {
    "next" : "https://api.nasa.gov/neo/rest/v1/feed?start_date=2011-02-23&end_date=2011-02-23&detailed=true&api_key=t0TVs3DtDT2H8Oy2Zy8m2eVrNsAVKAexjcZXUckd",
    "prev" : "https://api.nasa.gov/neo/rest/v1/feed?start_date=2011-02-21&end_date=2011-02-21&detailed=true&api_key=t0TVs3DtDT2H8Oy2Zy8m2eVrNsAVKAexjcZXUckd",
    "self" : "https://api.nasa.gov/neo/rest/v1/feed?start_date=2011-02-22&end_date=2011-02-22&detailed=true&api_key=t0TVs3DtDT2H8Oy2Zy8m2eVrNsAVKAexjcZXUckd"
  },
  "element_count" : 7,
  "near_earth_objects" : {
    "2011-02-22" : [ {
      "links" : {
        "self" : "https://api.nasa.gov/neo/rest/v1/neo/2267729?api_key=t0TVs3DtDT2H8Oy2Zy8m2eVrNsAVKAexjcZXUckd"
      },
      "neo_reference_id" : "2267729",
      "name" : "267729 (2003 FC5)",
      "nasa_jpl_url" : "http://ssd.jpl.nasa.gov/sbdb.cgi?sstr=2267729",
      "absolute_magnitude_h" : 18.3,
      "estimated_diameter" : {
        "kilometers" : {
          "estimated_diameter_min" : 0.5815070396,
          "estimated_diameter_max" : 1.30028927
        },
        "meters" : {
          "estimated_diameter_min" : 581.5070396458,
          "estimated_diameter_max" : 1300.2892700427
        },
        "miles" : {
          "estimated_diameter_min" : 0.3613316107,
          "estimated_diameter_max" : 0.807962044
        },
        "feet" : {
          "estimated_diameter_min" : 1907.8315559515,
          "estimated_diameter_max" : 4266.0410487267
        }
      },
      "is_potentially_hazardous_asteroid" : true,
      "close_approach_data" : [ {
        "close_approach_date" : "2011-02-22",
        "epoch_date_close_approach" : 1298361600000,
        "relative_velocity" : {
          "kilometers_per_second" : "11.8317793459",
          "kilometers_per_hour" : "42594.4056454056",
          "miles_per_hour" : "26466.5072189466"
        },
        "miss_distance" : {
          "astronomical" : "0.143969205",
          "lunar" : "56.0040206909",
          "kilometers" : "21537488",
          "miles" : "13382774"
        },
        "orbiting_body" : "Earth"
      } ],
      "orbital_data" : {
        "orbit_id" : "74",
        "orbit_determination_date" : "2017-04-06 09:24:35",
        "orbit_uncertainty" : "0",
        "minimum_orbit_intersection" : ".0339574",
        "jupiter_tisserand_invariant" : "3.673",
        "epoch_osculation" : "2458000.5",
        "eccentricity" : ".6090639654965726",
        "semi_major_axis" : "1.916332082190974",
        "inclination" : "5.825998314855387",
        "ascending_node_longitude" : "189.2411897952043",
        "orbital_period" : "968.9571738440043",
        "perihelion_distance" : ".7491632650034354",
        "perihelion_argument" : "270.6524930468778",
        "aphelion_distance" : "3.083500899378512",
        "perihelion_time" : "2457516.995079785035",
        "mean_anomaly" : "179.638250250893",
        "mean_motion" : ".3715334482450074",
        "equinox" : "J2000"
      }
    }, {
      "links" : {
        "self" : "https://api.nasa.gov/neo/rest/v1/neo/2458116?api_key=t0TVs3DtDT2H8Oy2Zy8m2eVrNsAVKAexjcZXUckd"
      },
      "neo_reference_id" : "2458116",
      "name" : "458116 (2010 DA)",
      "nasa_jpl_url" : "http://ssd.jpl.nasa.gov/sbdb.cgi?sstr=2458116",
      "absolute_magnitude_h" : 20.3,
      "estimated_diameter" : {
        "kilometers" : {
          "estimated_diameter_min" : 0.2315021222,
          "estimated_diameter_max" : 0.5176544822
        },
        "meters" : {
          "estimated_diameter_min" : 231.5021222103,
          "estimated_diameter_max" : 517.6544821978
        },
        "miles" : {
          "estimated_diameter_min" : 0.1438487052,
          "estimated_diameter_max" : 0.3216554833
        },
        "feet" : {
          "estimated_diameter_min" : 759.5214226325,
          "estimated_diameter_max" : 1698.3415313737
        }
      },
      "is_potentially_hazardous_asteroid" : true,
      "close_approach_data" : [ {
        "close_approach_date" : "2011-02-22",
        "epoch_date_close_approach" : 1298361600000,
        "relative_velocity" : {
          "kilometers_per_second" : "14.2507452369",
          "kilometers_per_hour" : "51302.6828527972",
          "miles_per_hour" : "31877.492020395"
        },
        "miss_distance" : {
          "astronomical" : "0.4561929086",
          "lunar" : "177.4590454102",
          "kilometers" : "68245488",
          "miles" : "42405780"
        },
        "orbiting_body" : "Earth"
      } ],
      "orbital_data" : {
        "orbit_id" : "31",
        "orbit_determination_date" : "2017-04-06 09:19:50",
        "orbit_uncertainty" : "2",
        "minimum_orbit_intersection" : ".00596999",
        "jupiter_tisserand_invariant" : "5.737",
        "epoch_osculation" : "2458000.5",
        "eccentricity" : ".565583517389498",
        "semi_major_axis" : "1.030498663931272",
        "inclination" : "20.53373299942401",
        "ascending_node_longitude" : "162.3512932585785",
        "orbital_period" : "382.0934355103726",
        "perihelion_distance" : ".4476656049198451",
        "perihelion_argument" : "122.1924535686936",
        "aphelion_distance" : "1.613331722942699",
        "perihelion_time" : "2458005.228574516825",
        "mean_anomaly" : "355.5448414763179",
        "mean_motion" : ".9421779244103952",
        "equinox" : "J2000"
      }
    }, {
      "links" : {
        "self" : "https://api.nasa.gov/neo/rest/v1/neo/3368294?api_key=t0TVs3DtDT2H8Oy2Zy8m2eVrNsAVKAexjcZXUckd"
      },
      "neo_reference_id" : "3368294",
      "name" : "(2007 DA)",
      "nasa_jpl_url" : "http://ssd.jpl.nasa.gov/sbdb.cgi?sstr=3368294",
      "absolute_magnitude_h" : 22.4,
      "estimated_diameter" : {
        "kilometers" : {
          "estimated_diameter_min" : 0.0880146521,
          "estimated_diameter_max" : 0.1968067451
        },
        "meters" : {
          "estimated_diameter_min" : 88.0146520901,
          "estimated_diameter_max" : 196.8067450894
        },
        "miles" : {
          "estimated_diameter_min" : 0.0546897524,
          "estimated_diameter_max" : 0.122290004
        },
        "feet" : {
          "estimated_diameter_min" : 288.7619911632,
          "estimated_diameter_max" : 645.6914415591
        }
      },
      "is_potentially_hazardous_asteroid" : false,
      "close_approach_data" : [ {
        "close_approach_date" : "2011-02-22",
        "epoch_date_close_approach" : 1298361600000,
        "relative_velocity" : {
          "kilometers_per_second" : "26.6504984171",
          "kilometers_per_hour" : "95941.7943017382",
          "miles_per_hour" : "59614.4999093217"
        },
        "miss_distance" : {
          "astronomical" : "0.2807426844",
          "lunar" : "109.2089004517",
          "kilometers" : "41998508",
          "miles" : "26096662"
        },
        "orbiting_body" : "Earth"
      } ],
      "orbital_data" : {
        "orbit_id" : "18",
        "orbit_determination_date" : "2017-04-06 09:07:00",
        "orbit_uncertainty" : "1",
        "minimum_orbit_intersection" : ".0200593",
        "jupiter_tisserand_invariant" : "5.873",
        "epoch_osculation" : "2458000.5",
        "eccentricity" : ".5737126516482606",
        "semi_major_axis" : "1.00986054070864",
        "inclination" : "2.75882662551541",
        "ascending_node_longitude" : "117.2995073059307",
        "orbital_period" : "370.6726400518484",
        "perihelion_distance" : ".4304907721037399",
        "perihelion_argument" : "262.069637273857",
        "aphelion_distance" : "1.58923030931354",
        "perihelion_time" : "2458159.381200453282",
        "mean_anomaly" : "205.6934071120515",
        "mean_motion" : ".9712073703353029",
        "equinox" : "J2000"
      }
    } ]
  }
}